NORAD_CAT_ID,OBJECT_NAME,OBJECT_TYPE,EPOCH,MEAN_MOTION,ECCENTRICITY,INCLINATION,RA_OF_ASC_NODE,ARG_OF_PERICENTER,MEAN_ANOMALY,BSTAR,MEAN_MOTION_DOT,MEAN_MOTION_DDOT,TLE_LINE0,TLE_LINE1,TLE_LINE2,SEMIMAJOR_AXIS,PERIOD,APOGEE,PERIGEE,DECAYED
54186.0,STARLINK-5194,PAYLOAD,2023-05-12 17:25:38,15.0883822,9.02e-05,53.2158,306.9853,94.2328,265.8767,3.2851e-05,2.35e-06,0.0,0 STARLINK-5194,1 54186U 22141AF  23132.72613971  .00000235  00000-0  32851-4 0  9994,2 54186  53.2158 306.9853 0000902  94.2328 265.8767 15.08838220 30206,6917.886,95.438,540.375,539.127,0.0
54186.0,STARLINK-5194,PAYLOAD,2023-05-13 04:33:19,15.08847882,9.22e-05,53.2165,304.9027,80.53,279.5796,5.7106e-05,6.21e-06,0.0,0 STARLINK-5194,1 54186U 22141AF  23133.18981270  .00000621  00000-0  57106-4 0  9994,2 54186  53.2165 304.9027 0000922  80.5300 279.5796 15.08847882 30506,6917.856,95.437,540.359,539.083,0.0
54186.0,STARLINK-5194,PAYLOAD,2023-05-13 18:51:48,15.08842238,0.0001186,53.2179,302.2253,71.0553,289.0567,0.00010319,1.355e-05,0.0,0 STARLINK-5194,1 54186U 22141AF  23133.78597691  .00001355  00000-0  10319-3 0  9999,2 54186  53.2179 302.2253 0001186  71.0553 289.0567 15.08842238 30592,6917.874,95.437,540.559,538.918,0.0
54186.0,STARLINK-5194,PAYLOAD,2023-05-14 04:24:07,15.08838357,0.000111,53.2176,300.4432,81.3511,278.7607,9.2172e-05,1.179e-05,0.0,0 STARLINK-5194,1 54186U 22141AF  23134.18341982  .00001179  00000-0  92172-4 0  9996,2 54186  53.2176 300.4432 0001110  81.3511 278.7607 15.08838357 30422,6917.885,95.438,540.518,538.983,0.0
54186.0,STARLINK-5194,PAYLOAD,2023-05-14 20:17:58,15.08841402,0.0001154,53.2177,297.4661,83.4523,276.66,3.137e-05,2.11e-06,0.0,0 STARLINK-5194,1 54186U 22141AF  23134.84581987  .00000211  00000-0  31370-4 0  9999,2 54186  53.2177 297.4661 0001154  83.4523 276.6600 15.08841402 30757,6917.876,95.437,540.539,538.943,0.0
54186.0,STARLINK-5194,PAYLOAD,2023-05-15 04:14:54,15.0884067,0.0001181,53.2175,295.9805,81.5454,278.5672,2.461e-05,1.04e-06,0.0,0 STARLINK-5194,1 54186U 22141AF  23135.17702069  .00000104  00000-0  24610-4 0  9992,2 54186  53.2175 295.9805 0001181  81.5454 278.5672 15.08840670 30576,6917.878,95.438,540.56,538.926,0.0
54186.0,STARLINK-5194,PAYLOAD,2023-05-15 16:57:59,15.08842645,0.0001066,53.2171,293.601,82.4214,277.6899,8.501e-05,1.065e-05,0.0,0 STARLINK-5194,1 54186U 22141AF  23135.70693688  .00001065  00000-0  85010-4 0  9995,2 54186  53.2171 293.6010 0001066  82.4214 277.6899 15.08842645 30655,6917.872,95.437,540.475,539.0,0.0
54186.0,STARLINK-5194,PAYLOAD,2023-05-16 13:38:00,15.08831188,0.0001155,53.2171,289.7338,94.5352,265.5772,0.00014235,1.978e-05,0.0,0 STARLINK-5194,1 54186U 22141AF  23136.56806335  .00001978  00000-0  14235-3 0  9998,2 54186  53.2171 289.7338 0001155  94.5352 265.5772 15.08831188 30780,6917.907,95.438,540.571,538.973,0.0
54186.0,STARLINK-5194,PAYLOAD,2023-05-16 16:48:46,15.08838326,9.69e-05,53.2162,289.1401,92.0097,268.1006,0.00010703,1.416e-05,0.0,0 STARLINK-5194,1 54186U 22141AF  23136.70053923  .00001416  00000-0  10703-3 0  9994,2 54186  53.2162 289.1401 0000969  92.0097 268.1006 15.08838326 31035,6917.886,95.438,540.421,539.08,0.0
54186.0,STARLINK-5194,PAYLOAD,2023-05-17 16:39:33,15.08837432,7.33e-05,53.2168,284.6829,81.9492,278.1584,3.5809e-05,2.82e-06,0.0,0 STARLINK-5194,1 54186U 22141AF  23137.69414260  .00000282  00000-0  35809-4 0  9993,2 54186  53.2168 284.6829 0000733  81.9492 278.1584 15.08837432 30959,6917.888,95.438,540.26,539.246,0.0
54186.0,STARLINK-5194,PAYLOAD,2023-05-18 02:11:52,15.08842661,8.74e-05,53.2163,282.8985,82.6152,277.494,-6.3379e-06,-3.89e-06,0.0,0 STARLINK-5194,1 54186U 22141AF  23138.09158041 -.00000389  00000-0 -63379-5 0  9994,2 54186  53.2163 282.8985 0000874  82.6152 277.4940 15.08842661 31245,6917.872,95.437,540.342,539.133,0.0
54186.0,STARLINK-5194,PAYLOAD,2023-05-18 13:19:34,15.08835326,9.88e-05,53.2172,280.8177,91.5434,268.5671,1.272e-05,-8.5e-07,0.0,0 STARLINK-5194,1 54186U 22141AF  23138.55526584 -.00000085  00000-0  12720-4 0  9991,2 54186  53.2172 280.8177 0000988  91.5434 268.5671 15.08835326 31088,6917.895,95.438,540.443,539.076,0.0
54186.0,STARLINK-5194,PAYLOAD,2023-05-18 21:16:29,15.08845135,9.14e-05,53.2157,279.3293,94.2515,265.8581,8.4387e-05,1.056e-05,0.0,0 STARLINK-5194,1 54186U 22141AF  23138.88645698  .00001056  00000-0  84387-4 0  9991,2 54186  53.2157 279.3293 0000914  94.2515 265.8581 15.08845135 31137,6917.865,95.437,540.362,539.097,0.0
54186.0,STARLINK-5194,PAYLOAD,2023-05-19 02:02:40,15.08827854,0.0001541,53.2151,278.4356,89.4101,270.7067,-1.4697e-05,-5.22e-06,0.0,0 STARLINK-5194,1 54186U 22141AF  23139.08519277 -.00000522  00000-0 -14697-4 0  9993,2 54186  53.2151 278.4356 0001541  89.4101 270.7067 15.08827854 31395,6917.918,95.438,540.849,538.716,0.0
54186.0,STARLINK-5194,PAYLOAD,2023-05-19 16:21:08,15.08836983,6.53e-05,53.2182,275.7604,89.5013,270.6054,1.7124e-05,-1.5e-07,0.0,0 STARLINK-5194,1 54186U 22141AF  23139.68134557 -.00000015  00000-0  17124-4 0  9997,2 54186  53.2182 275.7604 0000653  89.5013 270.6054 15.08836983 31489,6917.89,95.438,540.206,539.303,0.0
54186.0,STARLINK-5194,PAYLOAD,2023-05-20 01:53:26,15.08843066,8.67e-05,53.2175,273.9759,86.8057,273.3035,9.0427e-05,1.152e-05,0.0,0 STARLINK-5194,1 54186U 22141AF  23140.07877957  .00001152  00000-0  90427-4 0  9999,2 54186  53.2175 273.9759 0000867  86.8057 273.3035 15.08843066 31543,6917.871,95.437,540.336,539.136,0.0
54186.0,STARLINK-5194,PAYLOAD,2023-05-20 16:11:54,15.08856463,0.0001107,53.2168,271.2988,82.391,277.7208,0.00010752,1.425e-05,0.0,0 STARLINK-5194,1 54186U 22141AF  23140.67493252  .00001425  00000-0  10752-3 0  9992,2 54186  53.2168 271.2988 0001107  82.3910 277.7208 15.08856463 31632,6917.83,95.437,540.461,538.929,0.0
54186.0,STARLINK-5194,PAYLOAD,2023-05-21 01:44:13,15.08837846,0.0001413,53.2175,269.5111,87.7639,272.3515,8.6769e-05,1.093e-05,0.0,0 STARLINK-5194,1 54186U 22141AF  23141.07238358  .00001093  00000-0  86769-4 0  9994,2 54186  53.2175 269.5111 0001413  87.7639 272.3515 15.08837846 31697,6917.887,95.438,540.729,538.774,0.0
54186.0,STARLINK-5194,PAYLOAD,2023-05-21 11:16:33,15.08827254,0.0001153,53.2157,267.7326,96.1357,263.9767,-3.0732e-05,-7.77e-06,0.0,0 STARLINK-5194,1 54186U 22141AF  23141.46983507 -.00000777  00000-0 -30732-4 0  9999,2 54186  53.2157 267.7326 0001153  96.1357 263.9767 15.08827254 31526,6917.919,95.438,540.582,538.987,0.0
54186.0,STARLINK-5194,PAYLOAD,2023-05-21 16:02:42,15.08836277,0.0001031,53.2161,266.84,97.1479,262.963,-2.6059e-05,-7.02e-06,0.0,0 STARLINK-5194,1 54186U 22141AF  23141.66854970 -.00000702  00000-0 -26059-4 0  9997,2 54186  53.2161 266.8400 0001031  97.1479 262.9630 15.08836277 31551,6917.892,95.438,540.47,539.044,0.0
54186.0,STARLINK-5194,PAYLOAD,2023-05-22 01:35:01,15.08836156,0.0001027,53.2164,265.0554,94.1327,265.9782,-1.9605e-05,-6e-06,0.0,0 STARLINK-5194,1 54186U 22141AF  23142.06599048 -.00000600  00000-0 -19605-4 0  9990,2 54186  53.2164 265.0554 0001027  94.1327 265.9782 15.08836156 31848,6917.892,95.438,540.468,539.047,0.0
54186.0,STARLINK-5194,PAYLOAD,2023-05-22 07:56:34,15.08836883,9.62e-05,53.2165,263.8659,94.2984,265.8119,3.5838e-05,2.83e-06,0.0,0 STARLINK-5194,1 54186U 22141AF  23142.33094913  .00000283  00000-0  35838-4 0  9992,2 54186  53.2165 263.8659 0000962  94.2984 265.8119 15.08836883 31657,6917.89,95.438,540.42,539.089,0.0
54186.0,STARLINK-5194,PAYLOAD,2023-05-22 17:28:52,15.08851421,0.0001099,53.2161,262.0812,97.8997,262.212,3.0948e-05,2.05e-06,0.0,0 STARLINK-5194,1 54186U 22141AF  23142.72838074  .00000205  00000-0  30948-4 0  9990,2 54186  53.2161 262.0812 0001099  97.8997 262.2120 15.08851421 31940,6917.845,95.437,540.471,538.95,0.0
54186.0,STARLINK-5194,PAYLOAD,2023-05-23 10:58:07,15.08834734,0.0001408,53.2158,258.81,104.4921,255.6227,0.00013856,1.918e-05,0.0,0 STARLINK-5194,1 54186U 22141AF  23143.45702899  .00001918  00000-0  13856-3 0  9996,2 54186  53.2158 258.8100 0001408 104.4921 255.6227 15.08834734 32050,6917.896,95.438,540.736,538.787,0.0
54186.0,STARLINK-5194,PAYLOAD,2023-05-23 14:08:53,15.08839698,0.0001335,53.2165,258.2151,104.7214,255.3926,0.00011305,1.512e-05,0.0,0 STARLINK-5194,1 54186U 22141AF  23143.58950718  .00001512  00000-0  11305-3 0  9992,2 54186  53.2165 258.2151 0001335 104.7214 255.3926 15.08839698 31848,6917.881,95.438,540.67,538.823,0.0
54186.0,STARLINK-5194,PAYLOAD,2023-05-24 13:59:40,15.08844067,0.0001329,53.2182,253.7552,105.1325,254.9814,2.7419e-05,1.49e-06,0.0,0 STARLINK-5194,1 54186U 22141AF  23144.58310790  .00000149  00000-0  27419-4 0  9992,2 54186  53.2182 253.7552 0001329 105.1325 254.9814 15.08844067 32223,6917.868,95.437,540.652,538.814,0.0
54186.0,STARLINK-5194,PAYLOAD,2023-05-25 13:50:27,15.08838711,0.0001243,53.2178,249.2968,92.8392,267.2743,2.7545e-05,1.51e-06,0.0,0 STARLINK-5194,1 54186U 22141AF  23145.57671190  .00000151  00000-0  27545-4 0  9999,2 54186  53.2178 249.2968 0001243  92.8392 267.2743 15.08838711 32148,6917.884,95.438,540.609,538.889,0.0
54186.0,STARLINK-5194,PAYLOAD,2023-05-26 12:05:51,15.08840412,0.00011,53.2163,245.1318,87.8331,272.2787,4.711e-05,4.62e-06,0.0,0 STARLINK-5194,1 54186U 22141AF  23146.50407046  .00000462  00000-0  47110-4 0  9995,2 54186  53.2163 245.1318 0001100  87.8331 272.2787 15.08840412 32285,6917.879,95.438,540.505,538.983,0.0
54186.0,STARLINK-5194,PAYLOAD,2023-05-26 23:13:33,15.0883856,0.0001101,53.2165,243.0499,84.669,275.4428,5.0611e-05,5.18e-06,0.0,0 STARLINK-5194,1 54186U 22141AF  23146.96775153  .00000518  00000-0  50611-4 0  9994,2 54186  53.2165 243.0499 0001101  84.6690 275.4428 15.08838560 32589,6917.885,95.438,540.511,538.988,0.0
54186.0,STARLINK-5194,PAYLOAD,2023-05-27 16:42:48,15.08841526,0.0001068,53.216,239.7802,90.7254,269.386,7.0824e-05,8.4e-06,0.0,0 STARLINK-5194,1 54186U 22141AF  23147.69638981  .00000840  00000-0  70824-4 0  9998,2 54186  53.2160 239.7802 0001068  90.7254 269.3860 15.08841526 32465,6917.876,95.437,540.48,539.002,0.0
